PROPCUBE 3              
1 40973U 15058K   26068.73202292  .00005546  00000+0  46586-3 0  9992
2 40973  64.7688 203.0958 0123527  99.6156 261.8939 14.93528956 99948
STARLINK-4279           
1 53018U 22076AJ  26068.45481172  .00000260  00000+0  34401-4 0  9991
2 53018  53.2164  85.4343 0001309  88.5552 271.5590 15.08841874202945
